0 PEGASUS DEB
1 39309U 94029AEU 13287.00557732  .00001288  00000-0  31277-3 0    14
2 39309 081.7500 016.1074 0287796 042.2490 320.0246 14.29993052500417
0 PEGASUS DEB
1 39309U 94029AEU 13292.95290544  .00001204  00000-0  29226-3 0    29
2 39309 081.7500 010.4598 0287724 024.6487 336.7316 14.30005201501264
